BEIDOU-3 G2-C60
1 45344U 20017A   23124.49676266 -.00000127  00000+0  00000+0 0  9997
2 45344   2.0012   9.5687 0002676  74.0502  37.3691  1.00270929 11833
